[{"OBJECT_NAME":"OBJECT F","OBJECT_ID":"2024-092F","EPOCH":"2026-03-09T21:54:46.147104","MEAN_MOTION":15.3361444,"ECCENTRICITY":0.00086458,"INCLINATION":97.6418,"RA_OF_ASC_NODE":198.4543,"ARG_OF_PERICENTER":142.6506,"MEAN_ANOMALY":217.5339,"EPHEMERIS_TYPE":0,"CLASSIFICATION_TYPE":"U","NORAD_CAT_ID":59778,"ELEMENT_SET_NO":999,"REV_AT_EPOCH":10053,"BSTAR":0.0007914277,"MEAN_MOTION_DOT":0.00025723,"MEAN_MOTION_DDOT":0},{"OBJECT_NAME":"STARLINK-34561","OBJECT_ID":"2025-167D","EPOCH":"2026-03-09T06:35:10.352832","MEAN_MOTION":15.30202692,"ECCENTRICITY":0.00012005,"INCLINATION":53.1613,"RA_OF_ASC_NODE":25.9812,"ARG_OF_PERICENTER":83.3897,"MEAN_ANOMALY":276.724,"EPHEMERIS_TYPE":0,"CLASSIFICATION_TYPE":"U","NORAD_CAT_ID":65081,"ELEMENT_SET_NO":999,"REV_AT_EPOCH":3470,"BSTAR":0.0011595411,"MEAN_MOTION_DOT":0.00034144,"MEAN_MOTION_DDOT":0}]
